[{"OBJECT_NAME":"YAOGAN-40 03C","OBJECT_ID":"2025-199C","EPOCH":"2026-03-10T00:01:55.612704","MEAN_MOTION":14.12427697,"ECCENTRICITY":0.0002548,"INCLINATION":85.9851,"RA_OF_ASC_NODE":88.6173,"ARG_OF_PERICENTER":88.7754,"MEAN_ANOMALY":271.3721,"EPHEMERIS_TYPE":0,"CLASSIFICATION_TYPE":"U","NORAD_CAT_ID":65546,"ELEMENT_SET_NO":999,"REV_AT_EPOCH":2606,"BSTAR":9.861614e-5,"MEAN_MOTION_DOT":2.01e-6,"MEAN_MOTION_DDOT":0},{"OBJECT_NAME":"FENGYUN 1C DEB","OBJECT_ID":"1999-025DRZ","EPOCH":"2026-03-08T21:21:41.849280","MEAN_MOTION":14.17674111,"ECCENTRICITY":0.00526537,"INCLINATION":98.7468,"RA_OF_ASC_NODE":111.3943,"ARG_OF_PERICENTER":326.1927,"MEAN_ANOMALY":33.5895,"EPHEMERIS_TYPE":0,"CLASSIFICATION_TYPE":"U","NORAD_CAT_ID":36152,"ELEMENT_SET_NO":999,"REV_AT_EPOCH":65377,"BSTAR":0.0011911862,"MEAN_MOTION_DOT":2.414e-5,"MEAN_MOTION_DDOT":0}]
